OBJECT_NAME,OBJECT_ID,EPOCH,MEAN_MOTION,ECCENTRICITY,INCLINATION,RA_OF_ASC_NODE,ARG_OF_PERICENTER,MEAN_ANOMALY,EPHEMERIS_TYPE,CLASSIFICATION_TYPE,NORAD_CAT_ID,ELEMENT_SET_NO,REV_AT_EPOCH,BSTAR,MEAN_MOTION_DOT,MEAN_MOTION_DDOT
COSMOS 2534 (758),2019-030A,2026-07-05T08:31:14.012256,2.13102289,.00135243,64.3703,192.0046,275.0298,121.8655,0,U,44299,999,5531,0,.103E-5,0
BEIDOU-3 IGSO-2 (C39),2019-035A,2026-07-06T07:31:20.321760,1.00260728,.00396702,55.2501,158.6948,216.4750,140.9502,0,U,44337,999,2585,0,-.77E-6,0
GPS BIII-2  (PRN 18),2019-056A,2026-07-05T20:00:31.644576,2.00570057,.00630008,55.6274,330.4028,197.9636,333.5527,0,U,44506,999,5044,0,-.69E-6,0
BEIDOU-3 M24 (C46),2019-061A,2026-07-03T21:18:43.189632,1.86229350,.0008565,54.3971,182.1643,358.8529,1.1460,0,U,44542,999,4610,0,.88E-6,0
BEIDOU-3 M23 (C45),2019-061B,2026-07-06T06:34:35.386752,1.86227560,.00058641,54.3960,182.0526,339.2587,91.9188,0,U,44543,999,4615,0,.112E-5,0
EUTELSAT 5 WEST B (EGNOS/PRN 121),2019-067A,2026-07-06T06:55:31.299744,1.00271410,.00032388,0.0663,337.8463,128.2207,277.0836,0,U,44624,999,2462,0,-.28E-6,0
BEIDOU-3 M22 (C44),2019-078A,2026-07-05T08:08:09.837600,1.86227646,.00059141,53.9186,299.1896,49.8831,310.1966,0,U,44793,999,4498,0,-.58E-6,0
BEIDOU-3 M21 (C43),2019-078B,2026-07-05T11:29:35.042784,1.86228113,.0003864,53.8912,299.1453,48.4464,311.6147,0,U,44794,999,4499,0,-.58E-6,0
COSMOS 2544 (759),2019-088A,2026-07-02T12:21:34.940736,2.13103168,.00126282,65.5733,73.2191,256.5667,103.3590,0,U,44850,999,5104,0,-.8E-7,0
BEIDOU-3 M19 (C41),2019-090A,2026-07-05T10:40:21.209088,1.86231783,.0017143,56.5742,62.1879,297.2857,237.3269,0,U,44864,999,4457,0,-.38E-6,0
BEIDOU-3 M20 (C42),2019-090B,2026-07-05T22:01:15.772224,1.86231646,.00150318,56.5761,62.2071,311.9992,269.2229,0,U,44865,999,4456,0,-.39E-6,0
BEIDOU-3 G2 (C60),2020-017A,2026-07-06T03:54:33.490368,1.00270981,.00024967,2.9003,47.6059,50.3813,324.8866,0,U,45344,999,2345,0,-.128E-5,0
COSMOS 2545 (760),2020-018A,2026-07-05T12:36:42.679872,2.13102802,.0009062,64.3433,311.7745,230.0279,129.9063,0,U,45358,999,4905,0,-.44E-6,0
BEIDOU-3 G3 (C61),2020-040A,2026-07-06T07:28:28.097184,1.00269354,.00022167,2.4913,67.4781,334.1967,105.2849,0,U,45807,999,2226,0,-.34E-5,0
GPS BIII-3  (PRN 23),2020-041A,2026-07-03T10:03:54.743040,2.00558496,.0065537,56.6609,28.3098,210.5872,315.2472,0,U,45854,999,4436,0,-.59E-6,0
GALAXY 30 (WAAS/PRN 135),2020-056C,2026-07-06T01:13:27.995808,1.00273430,.00019801,0.0181,36.0032,70.3190,71.0988,0,U,46114,999,2148,0,.51E-6,0
COSMOS 2547 (705K),2020-075A,2026-07-05T17:09:49.269312,2.13100185,.0009439,64.6011,191.8571,239.8715,120.0623,0,U,46805,999,4430,0,.107E-5,0
GPS BIII-4  (PRN 14),2020-078A,2026-07-06T05:50:15.193824,2.00564971,.00742732,53.9784,210.0060,207.5933,174.2050,0,U,46826,999,4189,0,.89E-6,0
GPS BIII-5  (PRN 11),2021-054A,2026-07-05T23:18:59.421312,2.00567861,.00261415,55.1649,331.7056,228.4455,143.5040,0,U,48859,999,3713,0,-.7E-6,0
QZS-1R (QZSS/PRN 196),2021-096A,2026-07-05T14:25:33.375072,1.00249302,.07555114,37.4964,79.3119,272.0883,281.1819,0,U,49336,999,1719,0,-.258E-5,0
GSAT0223 (GALILEO 27),2021-116A,2026-07-03T10:06:08.269056,1.70476367,.0001787,57.1558,341.2375,186.7549,176.0990,0,U,49809,999,2846,0,-.75E-6,0
GSAT0224 (GALILEO 28),2021-116B,2026-07-03T19:40:34.453344,1.70476408,.0001573,57.1559,341.2257,171.0762,189.2294,0,U,49810,999,2849,0,-.74E-6,0
COSMOS 2557 (706K),2022-075A,2026-07-05T21:06:15.616224,2.13102489,.00105778,64.2867,313.8270,272.7453,87.1460,0,U,52984,999,3111,0,-.46E-6,0
COSMOS 2559 (707K),2022-130A,2026-07-02T21:12:10.423872,2.13101779,.001288,64.2611,314.0154,179.7670,180.2387,0,U,54031,999,2902,0,-.49E-6,0
COSMOS 2564 (761),2022-161A,2026-07-05T13:00:45.523584,2.13102016,.00122703,64.7434,192.1023,225.0989,134.8292,0,U,54377,999,2802,0,.105E-5,0
GPS BIII-6  (PRN 28),2023-009A,2026-07-06T03:30:05.834304,2.00570238,.00062083,55.1244,147.7740,319.3269,217.0809,0,U,55268,999,2562,0,.77E-6,0
BEIDOU-3 G4 (C62),2023-066A,2026-07-06T07:36:57.282624,1.00266978,.00050563,0.4680,336.2681,178.9361,23.3037,0,U,56564,999,1158,0,-.268E-5,0
NVS-01 (IRNSS-1J),2023-076A,2026-07-06T00:43:23.379744,1.00269803,.00031558,2.1243,243.5096,7.6434,173.2786,0,U,56759,999,1130,0,-.321E-5,0
COSMOS 2569 (703K),2023-114A,2026-07-06T00:34:14.278368,2.13103762,.00099947,65.3126,71.9855,296.4225,63.5407,0,U,57517,999,2266,0,-.15E-6,0
BEIDOU-3 M28 (C50),2023-207A,2026-07-05T00:27:15.743808,1.86229766,.0002706,55.7683,61.7017,358.4998,1.5667,0,U,58654,999,1717,0,-.39E-6,0
BEIDOU-3 M26 (C48),2023-207B,2026-07-05T08:28:52.432032,1.86229736,.0002358,55.7709,61.6769,323.5408,36.5098,0,U,58655,999,1716,0,-.4E-6,0
